OBJECT_NAME,OBJECT_ID,EPOCH,MEAN_MOTION,ECCENTRICITY,INCLINATION,RA_OF_ASC_NODE,ARG_OF_PERICENTER,MEAN_ANOMALY,EPHEMERIS_TYPE,CLASSIFICATION_TYPE,NORAD_CAT_ID,ELEMENT_SET_NO,REV_AT_EPOCH,BSTAR,MEAN_MOTION_DOT,MEAN_MOTION_DDOT
JCSAT-18 (KACIFIC 1),2019-091A,2026-07-19T03:37:20.016768,1.00271049,.00004104,0.0453,238.5770,316.9877,305.6723,0,U,44868,999,2433,0,-.207E-5,0
ELEKTRO-L 3,2019-095A,2026-07-19T03:57:21.795840,1.00271683,.00014812,0.3374,82.3610,18.7927,331.1277,0,U,44903,999,2402,0,-.102E-5,0
SHIJIAN-20 (SJ-20),2019-097A,2026-07-18T18:00:38.461824,1.00271182,.0015491,4.9973,74.6760,57.6721,119.1269,0,U,44910,999,2401,0,.127E-5,0
TJS-5,2020-002A,2026-07-18T17:32:57.865920,1.00271547,.0007955,0.0735,78.1313,338.0337,251.1031,0,U,44978,999,2402,0,-.349E-5,0
GSAT-30,2020-005A,2026-07-19T03:18:21.835872,1.00272930,.00032628,0.0392,253.9933,196.0709,339.4574,0,U,45026,999,2382,0,-.17E-5,0
EUTELSAT KONNECT,2020-005B,2026-07-18T06:24:54.237024,1.00268756,.00018586,0.0682,93.7099,146.1168,159.6636,0,U,45027,999,2464,0,.41E-6,0
JCSAT-17,2020-013A,2026-07-19T05:16:11.756064,1.00271306,.0003262,5.3923,357.1757,128.6450,26.2493,0,U,45245,999,2355,0,-.321E-5,0
GEO-KOMPSAT-2B,2020-013B,2026-07-19T05:13:49.483776,1.00273253,.000035,0.0495,238.3677,306.8728,318.4736,0,U,45246,999,2360,0,-.349E-5,0
BEIDOU-3 G2,2020-017A,2026-07-19T01:34:52.387968,1.00272409,.00018136,2.9279,47.7966,58.3547,294.4428,0,U,45344,999,2357,0,-.147E-5,0
AEHF-6 (USA 298),2020-022B,2026-07-19T06:59:11.760576,1.00270184,.00418762,2.4789,301.5802,15.4793,222.5727,0,U,45465,999,2333,0,-.302E-5,0
BEIDOU-3 G3,2020-040A,2026-07-18T17:10:20.673120,1.00274773,.00022277,2.5232,67.4992,309.4166,287.6963,0,U,45807,999,2238,0,-.361E-5,0
APSTAR-6D,2020-045A,2026-07-18T07:01:05.767104,1.00280104,.00021459,0.0432,92.5886,2.3059,80.5040,0,U,45863,999,2217,0,-.324E-5,0
KOREASAT 116,2020-048A,2026-07-19T06:53:12.335712,1.00274574,.00009469,0.0112,346.1188,129.5924,40.8318,0,U,45920,999,2196,0,-.367E-5,0
EXPRESS 103,2020-053A,2026-07-18T06:50:29.284224,1.00272468,.00004759,0.0409,240.7231,187.7051,66.7797,0,U,45985,999,2196,0,-.288E-5,0
EXPRESS 80,2020-053B,2026-07-18T22:52:56.626752,1.00267555,.00007209,0.0128,29.8264,204.3074,125.8595,0,U,45986,999,2194,0,0,0
BSAT-4B,2020-056A,2026-07-19T06:51:12.527424,1.00271133,.00045792,0.0552,217.5078,272.0808,20.1077,0,U,46112,999,2171,0,-.355E-5,0
MEV-2,2020-056B,2026-07-18T22:00:38.678976,1.00270578,.00001446,0.0523,253.6759,353.6873,18.4990,0,U,46113,999,8101,0,-.18E-6,0
GALAXY 30 (G-30),2020-056C,2026-07-19T05:17:25.170144,1.00272876,.00022398,0.0199,55.0138,63.4215,132.9302,0,U,46114,999,2161,0,.31E-6,0
GAOFEN-13 01,2020-071A,2026-07-19T06:53:34.799712,1.00276062,.00445063,0.4790,86.1020,119.9478,312.6240,0,U,46610,999,2124,0,-.368E-5,0
TIANTONG-1 2,2020-082A,2026-07-18T20:40:17.919264,1.00272078,.00013097,0.7538,332.3255,130.6361,268.7125,0,U,46916,999,2097,0,-.362E-5,0
LUCAS (JDRS-1),2020-089A,2026-07-19T02:57:21.702240,1.00269470,.00017427,0.0648,268.1198,181.6645,342.2485,0,U,47202,999,2073,0,-.24E-5,0
SXM-7,2020-096A,2026-07-19T05:32:42.155808,1.00271224,.00036823,0.0253,101.5470,14.2604,179.2301,0,U,47240,999,776,0,-.21E-5,0
CMS-01,2020-099A,2026-07-19T01:35:44.805120,1.00270855,.00033465,0.0224,68.7632,200.8705,134.1682,0,U,47256,999,2051,0,0,0
TURKSAT 5A,2021-001A,2026-07-18T23:36:38.786400,1.00270725,.00000386,0.0139,74.8512,249.6158,357.3848,0,U,47306,999,2028,0,.148E-5,0
TIANTONG-1 3,2021-003A,2026-07-19T05:33:38.624256,1.00269828,.00030823,1.7326,341.3314,142.9259,337.6825,0,U,47321,999,2028,0,-.158E-5,0
TJS-6,2021-010A,2026-07-19T07:15:35.174880,1.00273953,.00030904,0.1684,261.2381,239.9928,83.2472,0,U,47613,999,2013,0,.38E-6,0
SBIRS GEO-5 (USA 315),2021-042A,2026-07-18T22:47:38.732640,1.00271320,.00015729,5.0641,329.3677,152.8309,250.2564,0,U,48618,999,1909,0,-.272E-5,0
FENGYUN 4B,2021-047A,2026-07-19T05:21:02.283840,1.00277813,.00068605,0.2306,80.1873,273.3927,128.2750,0,U,48808,999,1889,0,-.336E-5,0
SXM-8,2021-049A,2026-07-19T05:32:42.153216,1.00271931,.00057868,0.0179,52.9178,339.4705,262.6553,0,U,48838,999,1890,0,-.21E-5,0
TIANLIAN 1-05,2021-063A,2026-07-19T02:59:31.143264,1.00274312,.00014818,1.6744,80.4356,91.5925,186.6122,0,U,49011,999,1839,0,.102E-5,0
STAR ONE D2,2021-069A,2026-07-19T05:38:35.079072,1.00279637,.00026505,0.0078,6.2679,120.5887,184.7600,0,U,49055,999,1826,0,0,0
EUTELSAT QUANTUM,2021-069B,2026-07-19T06:33:36.715104,1.00273551,.00021871,0.0102,35.2252,75.1840,332.7459,0,U,49056,999,1824,0,.121E-5,0
