JCSAT-18 (KACIFIC 1)    
1 44868U 19091A   26200.15092612 -.00000207  00000+0  00000+0 0  9994
2 44868   0.0453 238.5770 0000410 316.9877 305.6723  1.00271049 24334
ELEKTRO-L 3             
1 44903U 19095A   26200.16483560 -.00000102  00000+0  00000+0 0  9999
2 44903   0.3374  82.3610 0001481  18.7927 331.1277  1.00271683 24027
SHIJIAN-20 (SJ-20)      
1 44910U 19097A   26199.75044516  .00000127  00000+0  00000+0 0  9991
2 44910   4.9973  74.6760 0015491  57.6721 119.1269  1.00271182 24018
TJS-5                   
1 44978U 20002A   26199.73122530 -.00000349  00000+0  00000+0 0  9991
2 44978   0.0735  78.1313 0007955 338.0337 251.1031  1.00271547 24023
GSAT-30                 
1 45026U 20005A   26200.13775273 -.00000170  00000+0  00000+0 0  9996
2 45026   0.0392 253.9933 0003262 196.0709 339.4574  1.00272930 23826
EUTELSAT KONNECT        
1 45027U 20005B   26199.26729441  .00000041  00000+0  00000+0 0  9990
2 45027   0.0682  93.7099 0001858 146.1168 159.6636  1.00268756 24649
JCSAT-17                
1 45245U 20013A   26200.21958051 -.00000321  00000+0  00000+0 0  9992
2 45245   5.3923 357.1757 0003262 128.6450  26.2493  1.00271306 23559
GEO-KOMPSAT-2B          
1 45246U 20013B   26200.21793384 -.00000349  00000+0  00000+0 0  9999
2 45246   0.0495 238.3677 0000350 306.8728 318.4736  1.00273253 23605
BEIDOU-3 G2             
1 45344U 20017A   26200.06588412 -.00000147  00000+0  00000+0 0  9995
2 45344   2.9279  47.7966 0001813  58.3547 294.4428  1.00272409 23570
AEHF-6 (USA 298)        
1 45465U 20022B   26200.29110834 -.00000302  00000+0  00000+0 0  9992
2 45465   2.4789 301.5802 0041876  15.4793 222.5727  1.00270184 23331
BEIDOU-3 G3             
1 45807U 20040A   26199.71551705 -.00000361  00000+0  00000+0 0  9997
2 45807   2.5232  67.4992 0002227 309.4166 287.6963  1.00274773 22386
APSTAR-6D               
1 45863U 20045A   26199.29242786 -.00000324  00000+0  00000+0 0  9992
2 45863   0.0432  92.5886 0002145   2.3059  80.5040  1.00280104 22171
KOREASAT 116            
1 45920U 20048A   26200.28694833 -.00000367  00000+0  00000+0 0  9992
2 45920   0.0112 346.1188 0000946 129.5924  40.8318  1.00274574 21960
EXPRESS 103             
1 45985U 20053A   26199.28506116 -.00000288  00000+0  00000+0 0  9994
2 45985   0.0409 240.7231 0000475 187.7051  66.7797  1.00272468 21960
EXPRESS 80              
1 45986U 20053B   26199.95343318  .00000000  00000+0  00000+0 0  9993
2 45986   0.0128  29.8264 0000720 204.3074 125.8595  1.00267555 21947
BSAT-4B                 
1 46112U 20056A   26200.28556166 -.00000355  00000+0  00000+0 0  9998
2 46112   0.0552 217.5078 0004579 272.0808  20.1077  1.00271133 21716
MEV-2                   
1 46113U 20056B   26199.91711434 -.00000018  00000+0  00000+0 0  9993
2 46113   0.0523 253.6759 0000144 353.6873  18.4990  1.00270578 81019
GALAXY 30 (G-30)        
1 46114U 20056C   26200.22043021  .00000031  00000+0  00000+0 0  9995
2 46114   0.0199  55.0138 0002239  63.4215 132.9302  1.00272876 21619
GAOFEN-13 01            
1 46610U 20071A   26200.28720833 -.00000368  00000+0  00000+0 0  9996
2 46610   0.4790  86.1020 0044506 119.9478 312.6240  1.00276062 21245
TIANTONG-1 2            
1 46916U 20082A   26199.86131851 -.00000362  00000+0  00000+0 0  9998
2 46916   0.7538 332.3255 0001309 130.6361 268.7125  1.00272078 20973
LUCAS (JDRS-1)          
1 47202U 20089A   26200.12316785 -.00000240  00000+0  00000+0 0  9992
2 47202   0.0648 268.1198 0001742 181.6645 342.2485  1.00269470 20734
SXM-7                   
1 47240U 20096A   26200.23104347 -.00000210  00000+0  00000+0 0  9990
2 47240   0.0253 101.5470 0003682  14.2604 179.2301  1.00271224  7765
CMS-01                  
1 47256U 20099A   26200.06649080  .00000000  00000+0  00000+0 0  9995
2 47256   0.0224  68.7632 0003346 200.8705 134.1682  1.00270855 20515
TURKSAT 5A              
1 47306U 21001A   26199.98378225  .00000148  00000+0  00000+0 0  9996
2 47306   0.0139  74.8512 0000038 249.6158 357.3848  1.00270725 20282
TIANTONG-1 3            
1 47321U 21003A   26200.23169704 -.00000158  00000+0  00000+0 0  9998
2 47321   1.7326 341.3314 0003082 142.9259 337.6825  1.00269828 20284
TJS-6                   
1 47613U 21010A   26200.30249045  .00000038  00000+0  00000+0 0  9991
2 47613   0.1684 261.2381 0003090 239.9928  83.2472  1.00273953 20131
SBIRS GEO-5 (USA 315)   
1 48618U 21042A   26199.94975385 -.00000272  00000+0  00000+0 0  9993
2 48618   5.0641 329.3677 0001572 152.8309 250.2564  1.00271320 19094
FENGYUN 4B              
1 48808U 21047A   26200.22294310 -.00000336  00000+0  00000+0 0  9996
2 48808   0.2306  80.1873 0006860 273.3927 128.2750  1.00277813 18891
SXM-8                   
1 48838U 21049A   26200.23104344 -.00000210  00000+0  00000+0 0  9990
2 48838   0.0179  52.9178 0005786 339.4705 262.6553  1.00271931 18900
TIANLIAN 1-05           
1 49011U 21063A   26200.12466601  .00000102  00000+0  00000+0 0  9994
2 49011   1.6744  80.4356 0001481  91.5925 186.6122  1.00274312 18397
STAR ONE D2             
1 49055U 21069A   26200.23512823  .00000000  00000+0  00000+0 0  9995
2 49055   0.0078   6.2679 0002650 120.5887 184.7600  1.00279637 18262
EUTELSAT QUANTUM        
1 49056U 21069B   26200.27334161  .00000121  00000+0  00000+0 0  9991
2 49056   0.0102  35.2252 0002187  75.1840 332.7459  1.00273551 18243
